NORAD_CAT_ID,OBJECT_NAME,OBJECT_TYPE,EPOCH,MEAN_MOTION,ECCENTRICITY,INCLINATION,RA_OF_ASC_NODE,ARG_OF_PERICENTER,MEAN_ANOMALY,BSTAR,MEAN_MOTION_DOT,MEAN_MOTION_DDOT,TLE_LINE0,TLE_LINE1,TLE_LINE2,SEMIMAJOR_AXIS,PERIOD,APOGEE,PERIGEE,DECAYED
49757.0,STARLINK-3197,PAYLOAD,2022-06-01 20:00:01,15.08835785,0.00019,53.2136,200.08,38.7161,68.7889,-0.001499,-0.00024063,0.0,0 STARLINK-3197,1 49757U 21115AK  22152.83334491 -.00024063  00000-0 -14990-2 0  9991,2 49757  53.2136 200.0800 0001900  38.7161  68.7889 15.08835785  1300,6917.893,95.438,541.073,538.444,0.0
49757.0,STARLINK-3197,PAYLOAD,2022-06-02 19:22:21,15.0883082,0.0001975,53.2149,195.7077,44.0867,316.0282,-1.5284e-05,-5.31e-06,0.0,0 STARLINK-3197,1 49757U 21115AK  22153.80719498 -.00000531  00000-0 -15284-4 0  9996,2 49757  53.2149 195.7077 0001975  44.0867 316.0282 15.08830820 29070,6917.908,95.438,541.14,538.4069999999998,0.0
49757.0,STARLINK-3197,PAYLOAD,2022-06-03 09:40:49,15.08835938,0.0001901,53.215,193.0312,39.7497,320.3634,-1.0803e-05,-4.6e-06,0.0,0 STARLINK-3197,1 49757U 21115AK  22154.40335325 -.00000460  00000-0 -10803-4 0  9999,2 49757  53.2150 193.0312 0001901  39.7497 320.3634 15.08835938 28055,6917.893,95.438,541.073,538.443,0.0
49757.0,STARLINK-3197,PAYLOAD,2022-06-04 12:42:23,15.08834942,0.0001969,53.2148,187.9761,42.094,318.0203,7.136100000000001e-05,8.48e-06,0.0,0 STARLINK-3197,1 49757U 21115AK  22155.52943443  .00000848  00000-0  71361-4 0  9993,2 49757  53.2148 187.9761 0001969  42.0940 318.0203 15.08834942 29338,6917.896,95.438,541.123,538.399,0.0
49757.0,STARLINK-3197,PAYLOAD,2022-06-05 22:00:00,15.08822123,0.0001932,53.213,181.748,44.6867,294.8315,0.0026664,0.00042383,0.0,0 STARLINK-3197,1 49757U 21115AK  22156.91667824  .00042383  00000-0  26664-2 0  9997,2 49757  53.2130 181.7480 0001932  44.6867 294.8315 15.08822123 29541,6917.935,95.439,541.137,538.4630000000002,0.0
49757.0,STARLINK-3197,PAYLOAD,2022-06-06 14:00:01,15.0885545,0.0002141,53.213,178.7567,38.8165,323.8945,-0.0018486,-0.00029602,0.0,0 STARLINK-3197,1 49757U 21115AK  22157.58334491 -.00029602  00000-0 -18486-2 0  9996,2 49757  53.2130 178.7567 0002141  38.8165 323.8945 15.08855450 29644,6917.833000000001,95.437,541.179,538.217,0.0
49757.0,STARLINK-3197,PAYLOAD,2022-06-06 20:00:01,15.08822302,0.0001993,53.2134,177.6328,41.8642,239.5587,-0.00023924,-4.092e-05,0.0,0 STARLINK-3197,1 49757U 21115AK  22157.83334491 -.00004092  00000-0 -23924-3 0  9994,2 49757  53.2134 177.6328 0001993  41.8642 239.5587 15.08822302  1307,6917.934,95.439,541.178,538.4209999999998,0.0
49757.0,STARLINK-3197,PAYLOAD,2022-06-07 07:28:34,15.08835178,0.0002096,53.2152,175.4861,45.5348,314.5816,-5.9883e-05,-1.241e-05,0.0,0 STARLINK-3197,1 49757U 21115AK  22158.31151521 -.00001241  00000-0 -59883-4 0  9996,2 49757  53.2152 175.4861 0002096  45.5348 314.5816 15.08835178 29757,6917.895,95.438,541.21,538.31,0.0
49757.0,STARLINK-3197,PAYLOAD,2022-06-07 18:36:16,15.08835039,0.0002122,53.2151,173.4045,46.1055,314.0112,-5.998600000000001e-05,-1.243e-05,0.0,0 STARLINK-3197,1 49757U 21115AK  22158.77519626 -.00001243  00000-0 -59986-4 0  9996,2 49757  53.2151 173.4045 0002122  46.1055 314.0112 15.08835039 28715,6917.896,95.438,541.229,538.293,0.0
49757.0,STARLINK-3197,PAYLOAD,2022-06-08 10:30:08,15.08837308,0.0002128,53.215,170.4304,46.8206,313.2964,-4.3269e-05,-9.77e-06,0.0,0 STARLINK-3197,1 49757U 21115AK  22159.43759506 -.00000977  00000-0 -43269-4 0  9993,2 49757  53.2150 170.4304 0002128  46.8206 313.2964 15.08837308 29921,6917.889,95.438,541.226,538.281,0.0
49757.0,STARLINK-3197,PAYLOAD,2022-06-09 10:20:55,15.08832732,0.000219,53.2146,165.9702,44.1629,315.9537,6.153e-05,6.91e-06,0.0,0 STARLINK-3197,1 49757U 21115AK  22160.43119696  .00000691  00000-0  61530-4 0  9997,2 49757  53.2146 165.9702 0002190  44.1629 315.9537 15.08832732 28960,6917.903,95.438,541.283,538.253,0.0
49757.0,STARLINK-3197,PAYLOAD,2022-06-10 05:25:33,15.0883622,0.0002224,53.2148,162.4016,45.3473,314.7701,6.0263e-05,6.71e-06,0.0,0 STARLINK-3197,1 49757U 21115AK  22161.22607734  .00000671  00000-0  60263-4 0  9990,2 49757  53.2148 162.4016 0002224  45.3473 314.7701 15.08836220 30194,6917.892,95.438,541.295,538.2180000000002,0.0
49757.0,STARLINK-3197,PAYLOAD,2022-06-10 10:11:42,15.08834189,0.0002232,53.2148,161.5095,44.6528,315.4644,3.7743e-05,3.12e-06,0.0,0 STARLINK-3197,1 49757U 21115AK  22161.42480002  .00000312  00000-0  37743-4 0  9998,2 49757  53.2148 161.5095 0002232  44.6528 315.4644 15.08834189 29119,6917.898,95.438,541.307,538.219,0.0
49757.0,STARLINK-3197,PAYLOAD,2022-06-10 16:33:15,15.08835559,0.0002271,53.2154,160.3202,53.0409,307.079,2.8287e-05,1.62e-06,0.0,0 STARLINK-3197,1 49757U 21115AK  22161.68975970  .00000162  00000-0  28287-4 0  9995,2 49757  53.2154 160.3202 0002271  53.0409 307.0790 15.08835559 29153,6917.894,95.438,541.33,538.188,0.0
49757.0,STARLINK-3197,PAYLOAD,2022-06-11 05:16:20,15.08831147,0.0002419,53.2151,157.9414,48.2195,311.9004,-1.6778e-05,-5.55e-06,0.0,0 STARLINK-3197,1 49757U 21115AK  22162.21968589 -.00000555  00000-0 -16778-4 0  9993,2 49757  53.2151 157.9414 0002419  48.2195 311.9004 15.08831147 30343,6917.906999999997,95.438,541.446,538.099,0.0
49757.0,STARLINK-3197,PAYLOAD,2022-06-11 16:24:04,15.08816665,0.0002556,53.2149,155.8591,51.4467,308.6754,-0.00013,-2.356e-05,0.0,0 STARLINK-3197,1 49757U 21115AK  22162.68338292 -.00002356  00000-0 -13000-3 0  9991,2 49757  53.2149 155.8591 0002556  51.4467 308.6754 15.08816665 30414,6917.9519999999975,95.439,541.585,538.048,0.0
49757.0,STARLINK-3197,PAYLOAD,2022-06-12 05:07:08,15.08828544,0.0002375,53.215,153.481,53.7185,306.4027,-3.8101e-05,-8.95e-06,0.0,0 STARLINK-3197,1 49757U 21115AK  22163.21329714 -.00000895  00000-0 -38101-4 0  9996,2 49757  53.2150 153.4810 0002375  53.7185 306.4027 15.08828544 30491,6917.915,95.438,541.423,538.137,0.0
49757.0,STARLINK-3197,PAYLOAD,2022-06-12 08:17:55,15.08829302,0.0002469,53.2151,152.8858,51.7973,308.3241,-2.502e-05,-6.86e-06,0.0,0 STARLINK-3197,1 49757U 21115AK  22163.34577758 -.00000686  00000-0 -25020-4 0  9997,2 49757  53.2151 152.8858 0002469  51.7973 308.3241 15.08829302 29405,6917.913000000001,95.438,541.486,538.07,0.0
49757.0,STARLINK-3197,PAYLOAD,2022-06-13 04:57:55,15.08833749,0.0002542,53.2148,149.0201,48.7542,311.3669,7.7699e-05,9.48e-06,0.0,0 STARLINK-3197,1 49757U 21115AK  22164.20689585  .00000948  00000-0  77699-4 0  9993,2 49757  53.2148 149.0201 0002542  48.7542 311.3669 15.08833749 30647,6917.899,95.438,541.523,538.006,0.0
49757.0,STARLINK-3197,PAYLOAD,2022-06-13 08:08:42,15.08833548,0.0002497,53.2151,148.4254,51.106,309.0154,8.360899999999999e-05,1.042e-05,0.0,0 STARLINK-3197,1 49757U 21115AK  22164.33937694  .00001042  00000-0  83609-4 0  9998,2 49757  53.2151 148.4254 0002497  51.1060 309.0154 15.08833548 29552,6917.9,95.438,541.493,538.038,0.0
49757.0,STARLINK-3197,PAYLOAD,2022-06-13 16:05:37,15.08838669,0.0002315,53.2147,146.9381,49.4205,310.6989,0.00013229,1.818e-05,0.0,0 STARLINK-3197,1 49757U 21115AK  22164.67057282  .00001818  00000-0  13229-3 0  9992,2 49757  53.2147 146.9381 0002315  49.4205 310.6989 15.08838669 29600,6917.884,95.438,541.351,538.148,0.0
49757.0,STARLINK-3197,PAYLOAD,2022-06-14 04:48:42,15.08847981,0.0002271,53.2154,144.5595,48.3723,311.7463,0.00017102,2.435e-05,0.0,0 STARLINK-3197,1 49757U 21115AK  22165.20049053  .00002435  00000-0  17102-3 0  9999,2 49757  53.2154 144.5595 0002271  48.3723 311.7463 15.08847981 30791,6917.856,95.437,541.2919999999998,538.15,0.0
49757.0,STARLINK-3197,PAYLOAD,2022-06-14 06:24:05,15.08848896,0.000228,53.2154,144.2621,48.6106,311.5082,0.00017952,2.571e-05,0.0,0 STARLINK-3197,1 49757U 21115AK  22165.26672997  .00002571  00000-0  17952-3 0  9998,2 49757  53.2154 144.2621 0002280  48.6106 311.5082 15.08848896 29694,6917.853,95.437,541.295,538.141,0.0
49757.0,STARLINK-3197,PAYLOAD,2022-06-14 15:56:23,15.08853437,0.0002309,53.2155,142.4778,49.4763,310.643,0.00019089,2.752e-05,0.0,0 STARLINK-3197,1 49757U 21115AK  22165.66416495  .00002752  00000-0  19089-3 0  9995,2 49757  53.2155 142.4778 0002309  49.4763 310.6430 15.08853437 29759,6917.839,95.437,541.302,538.107,0.0
49757.0,STARLINK-3197,PAYLOAD,2022-06-15 04:39:29,15.0884952,0.0002328,53.2159,140.0989,50.7197,309.4002,0.00011428,1.531e-05,0.0,0 STARLINK-3197,1 49757U 21115AK  22166.19408691  .00001531  00000-0  11428-3 0  9996,2 49757  53.2159 140.0989 0002328  50.7197 309.4002 15.08849520 29836,6917.851,95.437,541.327,538.106,0.0
49757.0,STARLINK-3197,PAYLOAD,2022-06-15 15:47:10,15.08848934,0.0002339,53.2159,138.0173,51.0043,309.1157,8.1055e-05,1.002e-05,0.0,0 STARLINK-3197,1 49757U 21115AK  22166.65776586  .00001002  00000-0  81055-4 0  9995,2 49757  53.2159 138.0173 0002339  51.0043 309.1157 15.08848934 31013,6917.853,95.437,541.336,538.1,0.0
49757.0,STARLINK-3197,PAYLOAD,2022-06-15 20:33:20,15.08851083,0.0002331,53.2159,137.1248,51.5387,308.5814,8.9051e-05,1.13e-05,0.0,0 STARLINK-3197,1 49757U 21115AK  22166.85648333  .00001130  00000-0  89051-4 0  9991,2 49757  53.2159 137.1248 0002331  51.5387 308.5814 15.08851083 29934,6917.847,95.437,541.3240000000002,538.099,0.0
49757.0,STARLINK-3197,PAYLOAD,2022-06-19 04:02:37,15.08836661,0.0002205,53.2158,122.259,56.7212,303.3991,1.519e-05,-4.7e-07,0.0,0 STARLINK-3197,1 49757U 21115AK  22170.16848663 -.00000047  00000-0  15190-4 0  9998,2 49757  53.2158 122.2590 0002205  56.7212 303.3991 15.08836661 30433,6917.891,95.438,541.281,538.23,0.0
49757.0,STARLINK-3197,PAYLOAD,2022-06-19 13:34:55,15.0883849,0.0002299,53.2163,120.4743,56.6572,303.464,9.4296e-05,1.213e-05,0.0,0 STARLINK-3197,1 49757U 21115AK  22170.56592397  .00001213  00000-0  94296-4 0  9991,2 49757  53.2163 120.4743 0002299  56.6572 303.4640 15.08838490 31604,6917.885,95.438,541.34,538.16,0.0
